{
    "links": {
        "self": "http://www.neowsapp.com/rest/v1/neo/3479123?api_key=iIulBulltgU6a56xZRHN4H3l9WmuAYTsLGpBGhQ2"
    },
    "id": "3479123",
    "neo_reference_id": "3479123",
    "name": "(2009 WJ106)",
    "designation": "2009 WJ106",
    "nasa_jpl_url": "http://ssd.jpl.nasa.gov/sbdb.cgi?sstr=3479123",
    "absolute_magnitude_h": 25.5,
    "estimated_diameter": {
        "kilometers": {
            "estimated_diameter_min": 0.0211132445,
            "estimated_diameter_max": 0.0472106499
        },
        "meters": {
            "estimated_diameter_min": 21.113244479,
            "estimated_diameter_max": 47.2106498806
        },
        "miles": {
            "estimated_diameter_min": 0.0131191578,
            "estimated_diameter_max": 0.0293353287
        },
        "feet": {
            "estimated_diameter_min": 69.2691770164,
            "estimated_diameter_max": 154.8905885541
        }
    },
    "is_potentially_hazardous_asteroid": false,
    "close_approach_data": [
        {
            "close_approach_date": "2009-11-22",
            "close_approach_date_full": "2009-Nov-22 08:55",
            "epoch_date_close_approach": 1258880100000,
            "relative_velocity": {
                "kilometers_per_second": "20.6463441131",
                "kilometers_per_hour": "74326.8388070624",
                "miles_per_hour": "46183.8071465328"
            },
            "miss_distance": {
                "astronomical": "0.0176371134",
                "lunar": "6.8608371126",
                "kilometers": "2638474.597588458",
                "miles": "1639472.0916104004"
            },
            "orbiting_body": "Earth"
        },
        {
            "close_approach_date": "2011-03-26",
            "close_approach_date_full": "2011-Mar-26 13:38",
            "epoch_date_close_approach": 1301146680000,
            "relative_velocity": {
                "kilometers_per_second": "34.6914781146",
                "kilometers_per_hour": "124889.3212124898",
                "miles_per_hour": "77601.3673945051"
            },
            "miss_distance": {
                "astronomical": "0.4405786908",
                "lunar": "171.3851107212",
                "kilometers": "65909633.711068596",
                "miles": "40954347.3097387848"
            },
            "orbiting_body": "Earth"
        }
    ],
    "orbital_data": {
        "orbit_id": "6",
        "orbit_determination_date": "2017-04-06 08:58:51",
        "first_observation_date": "2009-11-26",
        "last_observation_date": "2009-11-27",
        "data_arc_in_days": 1,
        "observations_used": 28,
        "orbit_uncertainty": "9",
        "minimum_orbit_intersection": ".00687863",
        "jupiter_tisserand_invariant": "4.584",
        "epoch_osculation": "2455162.5",
        "eccentricity": ".6452615359902015",
        "semi_major_axis": "1.369088249040088",
        "inclination": "1.123909223650944",
        "ascending_node_longitude": "81.64979639216912",
        "orbital_period": "585.1208733498743",
        "perihelion_distance": ".4856682625583453",
        "perihelion_argument": "231.9180121066164",
        "aphelion_distance": "2.252508235521831",
        "perihelion_time": "2455107.146637441722",
        "mean_anomaly": "34.05657092165393",
        "mean_motion": ".6152574901985033",
        "equinox": "J2000",
        "orbit_class": {
            "orbit_class_type": "APO",
            "orbit_class_description": "Near-Earth asteroid orbits which cross the Earth’s orbit similar to that of 1862 Apollo",
            "orbit_class_range": "a (semi-major axis) > 1.0 AU; q (perihelion) < 1.017 AU"
        }
    },
    "is_sentry_object": false
}